satname,norad_id,inclination_deg,eccentricity,mean_motion_rev_per_day,perigee_km,apogee_km,l1,l2
STARLINK-1278,45408,53.0449,0.0003494,15.59923105,385.51537526939865,390.2434675446775,1 45408U 20019BA  26091.83335647  .00159693  00000+0  19133-2 0  9991,2 45408  53.0449  18.0009 0003494 135.1324 347.3842 15.59923105  5988
STARLINK-1296,45412,53.1612,0.0002509,15.32115458,467.78374383254595,471.21988899062126,1 45412U 20019BE  26091.54382942  .00069173  00000+0  21916-2 0  9999,2 45412  53.1612  22.9742 0002509 142.8298 217.2878 15.32115458333472
STARLINK-1309,45414,53.0661,0.000692,15.59350271,384.8531067612312,394.219566659237,1 45414U 20019BG  26091.83335647  .00114505  00000+0  14108-2 0  9998,2 45414  53.0661  11.4266 0006920 122.0611  61.7726 15.59350271  5755
STARLINK-1316,45415,53.1615,0.0001576,15.32115632,468.42211016532383,470.580485756841,1 45415U 20019BH  26091.52373950  .00066129  00000+0  20965-2 0  9990,2 45415  53.1615  23.1187 0001576 157.3866 202.7205 15.32115632333498
STARLINK-1286,45417,53.0498,0.0003686,15.52673699,406.4216304284537,411.4250513117431,1 45417U 20019BK  26091.53523130  .00044699  00000+0  71606-3 0  9997,2 45417  53.0498  20.8070 0003686 120.6675 239.4698 15.52673699333776
STARLINK-1308,45419,53.0524,0.0005994,15.54781757,398.72262313300325,406.85159495492644,1 45419U 20019BM  26091.27605626  .00113565  00000+0  16595-2 0  9995,2 45419  53.0524  43.3023 0005994 107.8848 252.2816 15.54781757333186
STARLINK-1329,45531,53.0467,4.97e-05,15.65484472,371.51031022438383,372.18125851315017,1 45531U 20025A   26090.92626463  .00063444  00000+0  62259-3 0  9999,2 45531  53.0467 332.9169 0000497 144.4409 215.6639 15.65484472328926
STARLINK-1338,45532,53.0485,0.0003639,15.5857982,389.3028893370538,394.2300250732078,1 45532U 20025B   26091.87873457  .00058969  00000+0  75684-3 0  9994,2 45532  53.0485 332.3261 0003639 107.0667 253.0743 15.58579820329013
STARLINK-1350,45535,53.0715,0.0001908,15.36708781,454.54572486839606,457.1535741738526,1 45535U 20025E   26091.81824221  .00014085  00000+0  39703-3 0  9999,2 45535  53.0715 284.4743 0001908 115.2830 244.8370 15.36708781329711
STARLINK-1362,45538,53.1624,0.0001667,15.30593868,472.8970449716662,475.18156055100735,1 45538U 20025H   26090.46949604 -.00155624  00000+0 -52872-2 0  9993,2 45538  53.1624 359.8164 0001667  80.3074 279.8115 15.30593868328516
STARLINK-1368,45540,53.1623,0.0001836,15.30183972,474.0046423294734,476.52121078250457,1 45540U 20025K   26091.46037786 -.00000535  00000+0 -59290-5 0  9990,2 45540  53.1623 355.5571 0001836  96.6121 263.5088 15.30183972328659
STARLINK-1371,45542,53.0503,0.0001634,15.50868242,413.07993077577976,415.29966317303115,1 45542U 20025M   26091.39552051  .00091037  00000+0  15386-2 0  9991,2 45542  53.0503 340.6460 0001634 136.6366 223.4771 15.50868242328859
STARLINK-1372,45543,53.1608,0.0001202,15.30186886,474.4304481138215,476.0780033644887,1 45543U 20025N   26091.04525818 -.00001097  00000+0 -24914-4 0  9993,2 45543  53.1608 357.1843 0001202  99.6127 260.5010 15.30186886327693
STARLINK-1373,45544,53.0492,0.0003835,15.54921215,399.78132840645503,404.9819862166132,1 45544U 20025P   26091.86777575  .00108743  00000+0  15828-2 0  9999,2 45544  53.0492 337.2815 0003835 109.5190 250.6235 15.54921215328944
STARLINK-1327,45555,53.0466,0.0006124,15.58151386,388.86073355705776,397.1540311965937,1 45555U 20025AA  26091.90088618  .00081272  00000+0  10541-2 0  9993,2 45555  53.0466 314.1970 0006124 148.2006 211.9376 15.58151386329263
STARLINK-1356,45564,53.0502,0.0004808,15.48416107,418.0897786951018,424.6281740259701,1 45564U 20025AK  26091.86528460  .00095350  00000+0  17549-2 0  9999,2 45564  53.0502 323.2165 0004808 130.7227 229.4198 15.48416107329135
STARLINK-1357,45565,53.0487,0.0004166,15.60522698,383.32819154783556,388.9641923033487,1 45565U 20025AL  26091.83335647  .00119540  00000+0  14082-2 0  9997,2 45565  53.0487 285.6248 0004166 221.2603 280.9055 15.60522698  5943
STARLINK-1361,45567,53.0493,0.0006317,15.51565073,407.86652652279736,416.44538264161747,1 45567U 20025AN  26091.84294498  .00093849  00000+0  15455-2 0  9996,2 45567  53.0493 322.8683 0006317 113.4145 246.7528 15.51565073329142
STARLINK-1363,45568,53.0381,0.0004001,15.82884816,319.6063719026961,324.9680513568428,1 45568U 20025AP  26091.83335647  .00186981  00000+0  84709-3 0  9997,2 45568  53.0381 281.6280 0004001 149.1039  95.1660 15.82884816  6003
STARLINK-1366,45569,53.0384,0.0004516,15.81409641,323.4256434344852,329.4812295167103,1 45569U 20025AQ  26091.83335647  .00152812  00000+0  74500-3 0  9992,2 45569  53.0384 282.6005 0004516 146.5023 276.9379 15.81409641  6046
STARLINK-1376,45570,53.1597,0.0001655,15.32108152,468.39029763511644,470.65687328890454,1 45570U 20025AR  26091.04606737  .00072956  00000+0  23102-2 0  9999,2 45570  53.1597 333.8451 0001655 175.7380 184.3636 15.32108152328921
STARLINK-1320,45572,53.0464,0.0004122,15.72537906,348.8724787405072,354.42051225419436,1 45572U 20025AT  26091.65201622  .00097263  00000+0  70877-3 0  9992,2 45572  53.0464 232.1072 0004122 103.3565 256.7913 15.72537906330415
STARLINK-1321,45573,53.0477,0.0003563,15.52156887,408.01105435917634,412.84858707561943,1 45573U 20025AU  26090.99957141  .00074313  00000+0  12033-2 0  9993,2 45573  53.0477 311.3854 0003563 154.6641 205.4543 15.52156887328926
STARLINK-1331,45578,53.0514,0.0005149,15.52253615,406.652512244802,413.6430879319323,1 45578U 20025AZ  26091.84538925  .00099943  00000+0  16045-2 0  9991,2 45578  53.0514 314.0156 0005149 178.3433 181.7594 15.52253615329270
STARLINK-1333,45580,53.1597,0.0001206,15.30197289,474.3966487528369,476.0496792243912,1 45580U 20025BB  26091.88011139  .00002946  00000+0  11155-3 0  9996,2 45580  53.1597 330.0930 0001206  89.9869 270.1270 15.30197289329053
STARLINK-1335,45581,53.1567,0.0001109,15.29341749,477.0185294747944,478.5391716104441,1 45581U 20025BC  26091.05291297 -.00000704  00000+0 -12082-4 0  9994,2 45581  53.1567 331.2993 0001109 101.7877 258.3248 15.29341749328958
STARLINK-1337,45582,53.0515,0.0004888,15.6269202,376.5813234396601,383.1879653992446,1 45582U 20025BD  26091.83335647  .00102009  00000+0  11081-2 0  9994,2 45582  53.0515 309.0150 0004888 187.7147 299.0993 15.62692020  5993
STARLINK-1347,45586,53.042,0.0002696,15.58809069,389.27770206772857,392.9276761080846,1 45586U 20025BH  26091.86240102  .00142111  00000+0  17808-2 0  9993,2 45586  53.0420 277.1992 0002696 170.2636 189.8428 15.58809069329778
STARLINK-1364,45589,53.0486,0.0006651,15.53637931,401.6026822735312,410.6270941352195,1 45589U 20025BL  26091.87697976  .00106430  00000+0  16230-2 0  9994,2 45589  53.0486 311.6769 0006651 151.1879 208.9499 15.53637931329291
STARLINK-1365,45590,53.0528,0.0004889,15.48750642,417.056004595197,423.703594321707,1 45590U 20025BM  26090.95670653  .00072395  00000+0  13228-2 0  9993,2 45590  53.0528 347.1734 0004889 131.1274 229.0156 15.48750642328735
STARLINK-1443,45660,53.136,0.0002916,15.27201665,482.18114872212755,486.1832532801509,1 45660U 20035D   26091.89784799  .00058228  00000+0  21510-2 0  9995,2 45660  53.1360 317.7169 0002916 151.1699 208.9461 15.27201665322300
STARLINK-1446,45663,53.0234,0.0001831,15.43816633,433.6099234507228,436.104841993676,1 45663U 20035G   26090.44000604  .00023130  00000+0  51024-3 0  9992,2 45663  53.0234 255.9874 0001831   5.2984 354.8040 15.43816633323039
STARLINK-1448,45665,53.0482,0.000675,15.57156012,391.3201309938677,400.46507095518336,1 45665U 20035J   26091.83335647  .00112102  00000+0  15006-2 0  9993,2 45665  53.0482 300.8949 0006750 177.0503  47.7598 15.57156012  5978
STARLINK-1451,45668,53.0528,0.0001896,15.11210858,531.1958424729655,533.8163583366377,1 45668U 20035M   26090.91051485  .00031941  00000+0  18887-2 0  9990,2 45668  53.0528 325.6498 0001896 100.9265 259.1939 15.11210858322106
STARLINK-1452,45669,53.0306,0.0004723,15.48330289,418.3987000551124,424.82174127975395,1 45669U 20035N   26090.90713493  .00056640  00000+0  10541-2 0  9996,2 45669  53.0306 275.5888 0004723 135.8001 224.3384 15.48330289322800
STARLINK-1453,45670,53.0439,0.0002054,15.57606143,393.19634059766577,395.9785758050948,1 45670U 20035P   26091.83335647  .00116540  00000+0  15341-2 0  9991,2 45670  53.0439 261.4319 0002054 135.4861 163.1808 15.57606143  5979
STARLINK-1454,45671,53.0483,0.0006303,15.55801941,395.55033937581175,404.0946351054272,1 45671U 20035Q   26091.84856183  .00130311  00000+0  18291-2 0  9995,2 45671  53.0483 301.1668 0006303 159.2643 200.8624 15.55801941322519
STARLINK-1456,45673,53.0467,0.0002738,15.53914148,403.45359700180416,407.16821307460305,1 45673U 20035S   26091.86886835  .00115830  00000+0  17472-2 0  9995,2 45673  53.0467 294.7999 0002738 232.9554 127.1205 15.53914148322625
STARLINK-1457,45674,53.0423,0.0003366,15.85968349,311.3470503559947,315.8519273602942,1 45674U 20035T   26091.83335647  .00244334  00000+0  94856-3 0  9997,2 45674  53.0423 265.9462 0003366 178.2782  74.0234 15.85968349  6051
STARLINK-1458,45675,53.0516,0.0006024,15.45986482,424.38072473891316,432.58133814319353,1 45675U 20035U   26090.87469618  .00099402  00000+0  19881-2 0  9995,2 45675  53.0516 309.9463 0006024 165.1780 194.9404 15.45986482322283
STARLINK-1460,45676,53.1611,0.0001264,15.30190019,474.3786035797257,476.1111385167269,1 45676U 20035V   26090.93670189 -.00000114  00000+0  82710-5 0  9997,2 45676  53.1611 321.6124 0001264  85.7168 274.3978 15.30190019322123
STARLINK-1392,45677,53.154,0.0001364,15.29345738,476.83178369553116,478.7020742873592,1 45677U 20035W   26091.07218571 -.00000290  00000+0  22773-5 0  9995,2 45677  53.1540 320.9215 0001364  93.3662 266.7494 15.29345738322185
STARLINK-1394,45679,53.0468,0.0004031,15.53944943,402.4869132493868,407.95565669873304,1 45679U 20035Y   26091.80160836  .00108635  00000+0  16385-2 0  9998,2 45679  53.0468 285.3488 0004031 239.8296 120.2314 15.53944943322742
